SL-16 R/B               
1 25407U 98045B   26091.17570553 -.00000127  00000+0 -40060-4 0  9990
2 25407  71.0094 134.2890 0008115 334.4190  25.6530 14.16193157430283
ISS (ZARYA)             
1 25544U 98067A   26091.10102623  .00008862  00000+0  17059-3 0  9991
2 25544  51.6334 321.5639 0006224 257.9417 102.0874 15.48690056559805
CZ-4B R/B               
1 25732U 99025C   26091.09839970  .00000089  00000+0  63783-4 0  9994
2 25732  98.6580 134.8445 0035972 280.7063 133.2500 14.18269842391347
OKEAN-O                 
1 25860U 99039A   26091.16029836  .00000732  00000+0  10277-3 0  9995
2 25860  97.9396 150.8182 0000868  99.3827 260.7483 14.80371111437710
SL-16 R/B               
1 25861U 99039B   26091.11905802  .00000774  00000+0  10479-3 0  9997
2 25861  97.9918 150.1769 0014810 179.4348 180.6884 14.81762859440189
DELTA 2 R/B             
1 25876U 99041E   26091.02403593  .00001052  00000+0  20851-3 0  9991
2 25876  51.7608 212.0602 0502633  54.2922 310.3712 14.11889596366186
HELIOS 1B               
1 25977U 99064A   26091.17765348  .00001560  00000+0  17725-3 0  9993
2 25977  98.1675 354.0797 0001680  46.8835 313.2521 14.87784963688604
TERRA                   
1 25994U 99068A   26091.18467219  .00000488  00000+0  10848-3 0  9990
2 25994  97.9545 143.7548 0003623 105.1982 347.6695 14.61038417398366
SL-16 R/B               
1 26070U 00006B   26091.19699663  .00000232  00000+0  14213-3 0  9998
2 26070  71.0031  50.5082 0015475 154.5687 205.6201 14.15829474351748
TITAN 4B R/B            
1 26474U 00047B   26091.15641570  .00003851  00000+0  24184-3 0  9999
2 26474  67.9910 337.3277 0040027   9.0196 351.1662 15.09769675396307
ENVISAT                 
1 27386U 02009A   26091.13170414  .00000162  00000+0  66270-4 0  9999
2 27386  98.3766  44.1999 0001220  82.4031 295.4672 14.39044917262407
IDEFIX & ARIANE 42P R/B 
1 27422U 02021B   26090.59045613  .00000354  00000+0  15081-3 0  9991
2 27422  98.5896  28.9383 0012732 119.9144 240.3305 14.31041145247151
